GPS BIIR-2  (PRN 13)    
1 24876U 97035A   20080.69286470 -.00000049  00000-0  00000+0 0  9996
2 24876  55.4549 187.6195 0039355  63.4935 296.8979  2.00565073166037
GPS BIIR-3  (PRN 11)    
1 25933U 99055A   20083.32698737 -.00000092  00000-0  00000+0 0  9999
2 25933  52.2725  33.7194 0156768 113.0480 292.3463  2.00558439149902
GPS BIIR-4  (PRN 20)    
1 26360U 00025A   20084.21560174  .00000026  00000-0  00000+0 0  9991
2 26360  53.4796 112.7189 0049363 152.9000 208.9546  2.00567929145615
GPS BIIR-5  (PRN 28)    
1 26407U 00040A   20083.26309080 -.00000024  00000-0  00000+0 0  9990
2 26407  56.0586 305.5694 0187747 279.2705  78.6624  2.00564721144266
GPS BIIR-6  (PRN 14)    
1 26605U 00071A   20082.13190937 -.00000034  00000-0  00000+0 0  9999
2 26605  55.0304 184.8991 0113505 250.0515 285.8095  2.00569151141845
GPS BIIR-8  (PRN 16)    
1 27663U 03005A   20084.32150536 -.00000026  00000-0  00000+0 0  9999
2 27663  56.1147 305.3105 0113724  34.3153 133.8611  2.00556979125659
GPS BIIR-9  (PRN 21)    
1 27704U 03010A   20082.39910470 -.00000053  00000-0  00000+0 0  9997
2 27704  54.5669  56.5569 0250190 282.5714 265.1295  2.00579243124413
GPS BIIR-10 (PRN 22)    
1 28129U 03058A   20083.87608682  .00000027  00000-0  00000+0 0  9994
2 28129  53.2901 115.4648 0074007 290.5583  68.7250  2.00578547119134
GPS BIIR-11 (PRN 19)    
1 28190U 04009A   20079.18719119 -.00000111  00000-0  00000+0 0  9991
2 28190  56.2810   6.2994 0090361  90.2069 124.1475  2.00563583117228
GPS BIIR-12 (PRN 23)    
1 28361U 04023A   20080.97967267 -.00000044  00000-0  00000+0 0  9990
2 28361  54.0575 179.0263 0138214 235.4675 104.1960  2.00566568115340
GPS BIIR-13 (PRN 02)    
1 28474U 04045A   20080.74983082 -.00000048  00000-0  00000+0 0  9991
2 28474  54.9141  56.4762 0200241 265.7004 274.6174  2.00565541112704
GPS BIIRM-1 (PRN 17)    
1 28874U 05038A   20084.14116691 -.00000094  00000-0  00000+0 0  9991
2 28874  56.3877   3.4847 0135330 265.7979 306.4480  2.00564422106178
GPS BIIRM-2 (PRN 31)    
1 29486U 06042A   20081.46811007 -.00000012  00000-0  00000+0 0  9992
2 29486  54.8930 241.8966 0096121   6.0666 352.2311  2.00548837 98831
GPS BIIRM-3 (PRN 12)    
1 29601U 06052A   20082.40825982 -.00000020  00000-0  00000+0 0  9993
2 29601  56.1015 304.3048 0078620  63.6555 297.2012  2.00557816 97770
GPS BIIRM-4 (PRN 15)    
1 32260U 07047A   20078.22602694 -.00000052  00000-0  00000+0 0  9996
2 32260  53.1810 174.5698 0120122  49.1103 311.9319  2.00565616 91063
GPS BIIRM-5 (PRN 29)    
1 32384U 07062A   20084.26057473 -.00000094  00000-0  00000+0 0  9996
2 32384  56.4810   4.1475 0010132 110.9830  55.6746  2.00571657 89920
GPS BIIRM-6 (PRN 07)    
1 32711U 08012A   20081.13777548 -.00000011  00000-0  00000+0 0  9990
2 32711  54.6379 241.0338 0136368 222.5200 136.3782  2.00562112 88040
GPS BIIRM-8 (PRN 05)    
1 35752U 09043A   20083.73329926  .00000032  00000-0  00000+0 0  9996
2 35752  54.5493 118.5124 0056145  43.3950  62.6729  2.00569335 77684
GPS BIIF-1  (PRN 25)    
1 36585U 10022A   20078.45433503 -.00000013  00000-0  00000+0 0  9990
2 36585  55.3790 300.5615 0090263  51.3033 307.3197  2.00574935 71826
GPS BIIF-2  (PRN 01)    
1 37753U 11036A   20079.58259781 -.00000033  00000-0  00000+0 0  9995
2 37753  56.1164  60.8131 0093946  42.2702 138.1288  2.00568825 63520
GPS BIIF-3  (PRN 24)    
1 38833U 12053A   20083.31365121 -.00000020  00000-0  00000+0 0  9993
2 38833  53.6777 236.8759 0094613  37.0570 323.5427  2.00564864 54669
GPS BIIF-4  (PRN 27)    
1 39166U 13023A   20081.67456327 -.00000104  00000-0  00000+0 0  9990
2 39166  56.0553   0.2597 0079584  28.5998 331.8457  2.00565637 50176
GPS BIIF-5  (PRN 30)    
1 39533U 14008A   20083.67303602 -.00000016  00000-0  00000+0 0  9993
2 39533  53.7972 242.2870 0044399 195.5700 164.2482  2.00563370 44572
GPS BIIF-6  (PRN 06)    
1 39741U 14026A   20081.95837744 -.00000041  00000-0  00000+0 0  9990
2 39741  56.0921  60.2470 0021441 294.8128  64.9595  2.00552487 42821
GPS BIIF-7  (PRN 09)    
1 40105U 14045A   20080.04766372 -.00000051  00000-0  00000+0 0  9995
2 40105  54.5836 179.5195 0014371 104.9591 255.2021  2.00552182 41237
GPS BIIF-8  (PRN 03)    
1 40294U 14068A   20084.40900116  .00000034  00000-0  00000+0 0  9999
2 40294  55.3005 120.2615 0025347  36.0227 324.2295  2.00573390 39544
GPS BIIF-9  (PRN 26)    
1 40534U 15013A   20081.55590611 -.00000015  00000-0  00000+0 0  9995
2 40534  54.2951 298.4857 0046776   9.3411 350.7910  2.00573627 36551
GPS BIIF-10 (PRN 08)    
1 40730U 15033A   20083.70649617 -.00000095  00000-0  00000+0 0  9993
2 40730  55.5736 359.3907 0053312 349.9274   9.9870  2.00567631 34353
GPS BIIF-11 (PRN 10)    
1 41019U 15062A   20081.26505106  .00000023  00000-0  00000+0 0  9999
2 41019  55.2966 120.2103 0056017 210.3818 149.3693  2.00564591 32126
GPS BIIF-12 (PRN 32)    
1 41328U 16007A   20083.84872466 -.00000007  00000-0  00000+0 0  9997
2 41328  54.8211 179.8315 0038872 219.9401 139.7946  2.00560895 30231
GPS BIII-1  (PRN 04)    
1 43873U 18109A   20084.12576994 -.00000005  00000-0  00000+0 0  9996
2 43873  55.0016 182.0728 0007673 222.6476 229.6941  2.00559616  9370
